[
  {
    "OBJECT_NAME": "STARLINK-31930",
    "OBJECT_ID": "24150P",
    "EPOCH": "2025-11-11T04:55:19.136640",
    "MEAN_MOTION": 15.30205538,
    "ECCENTRICITY": 0.0001943,
    "INCLINATION": 53.1587,
    "RA_OF_ASC_NODE": 137.1743,
    "ARG_OF_PERICENTER": 92.8665,
    "MEAN_ANOMALY": 267.2558,
    "EPHEMERIS_TYPE": 0,
    "CLASSIFICATION_TYPE": "U",
    "NORAD_CAT_ID": 60596,
    "ELEMENT_SET_NO": 999,
    "REV_AT_EPOCH": 6982,
    "BSTAR": 0.0,
    "MEAN_MOTION_DOT": -7.65e-06,
    "MEAN_MOTION_DDOT": 0.0,
    "TLE_LINE1": "1 60596U 24150P   25315.20508260 -.00000765  00000+0 -13678-4 0  9995",
    "TLE_LINE2": "2 60596  53.1587 137.1743 0001943  92.8665 267.2558 15.30205538 69828",
    "COMMENT": "Grouped by shell and plane from TLE"
  },
  {
    "OBJECT_NAME": "STARLINK-32162",
    "OBJECT_ID": "24150Q",
    "EPOCH": "2025-11-10T22:16:28.175232",
    "MEAN_MOTION": 15.30199681,
    "ECCENTRICITY": 5.13e-05,
    "INCLINATION": 53.1634,
    "RA_OF_ASC_NODE": 139.0032,
    "ARG_OF_PERICENTER": 94.7009,
    "MEAN_ANOMALY": 265.405,
    "EPHEMERIS_TYPE": 0,
    "CLASSIFICATION_TYPE": "U",
    "NORAD_CAT_ID": 60597,
    "ELEMENT_SET_NO": 999,
    "REV_AT_EPOCH": 6985,
    "BSTAR": 4.588e-05,
    "MEAN_MOTION_DOT": 1e-05,
    "MEAN_MOTION_DDOT": 0.0,
    "TLE_LINE1": "1 60597U 24150Q   25314.92810388  .00001000  00000+0  45880-4 0  9992",
    "TLE_LINE2": "2 60597  53.1634 139.0032 0000513  94.7009 265.4050 15.30199681 69850",
    "COMMENT": "Grouped by shell and plane from TLE"
  },
  {
    "OBJECT_NAME": "STARLINK-32208",
    "OBJECT_ID": "24150R",
    "EPOCH": "2025-11-10T22:21:02.083968",
    "MEAN_MOTION": 15.30208432,
    "ECCENTRICITY": 9.56e-05,
    "INCLINATION": 53.1596,
    "RA_OF_ASC_NODE": 139.0226,
    "ARG_OF_PERICENTER": 65.8974,
    "MEAN_ANOMALY": 294.2127,
    "EPHEMERIS_TYPE": 0,
    "CLASSIFICATION_TYPE": "U",
    "NORAD_CAT_ID": 60598,
    "ELEMENT_SET_NO": 999,
    "REV_AT_EPOCH": 6985,
    "BSTAR": 2.8996e-05,
    "MEAN_MOTION_DOT": 5e-06,
    "MEAN_MOTION_DDOT": 0.0,
    "TLE_LINE1": "1 60598U 24150R   25314.93127412  .00000500  00000+0  28996-4 0  9996",
    "TLE_LINE2": "2 60598  53.1596 139.0226 0000956  65.8974 294.2127 15.30208432 69854",
    "COMMENT": "Grouped by shell and plane from TLE"
  },
  {
    "OBJECT_NAME": "STARLINK-32165",
    "OBJECT_ID": "24150S",
    "EPOCH": "2025-11-11T05:57:37.453824",
    "MEAN_MOTION": 15.30197911,
    "ECCENTRICITY": 0.0001401,
    "INCLINATION": 53.1599,
    "RA_OF_ASC_NODE": 137.4471,
    "ARG_OF_PERICENTER": 78.1719,
    "MEAN_ANOMALY": 281.9439,
    "EPHEMERIS_TYPE": 0,
    "CLASSIFICATION_TYPE": "U",
    "NORAD_CAT_ID": 60599,
    "ELEMENT_SET_NO": 999,
    "REV_AT_EPOCH": 6990,
    "BSTAR": 4.7142000000000004e-05,
    "MEAN_MOTION_DOT": 1.037e-05,
    "MEAN_MOTION_DDOT": 0.0,
    "TLE_LINE1": "1 60599U 24150S   25315.24835016  .00001037  00000+0  47142-4 0  9998",
    "TLE_LINE2": "2 60599  53.1599 137.4471 0001401  78.1719 281.9439 15.30197911 69906",
    "COMMENT": "Grouped by shell and plane from TLE"
  },
  {
    "OBJECT_NAME": "STARLINK-31923",
    "OBJECT_ID": "24150T",
    "EPOCH": "2025-11-11T05:42:25.367904",
    "MEAN_MOTION": 15.30220803,
    "ECCENTRICITY": 0.0001681,
    "INCLINATION": 53.1596,
    "RA_OF_ASC_NODE": 137.381,
    "ARG_OF_PERICENTER": 85.7807,
    "MEAN_ANOMALY": 274.3386,
    "EPHEMERIS_TYPE": 0,
    "CLASSIFICATION_TYPE": "U",
    "NORAD_CAT_ID": 60600,
    "ELEMENT_SET_NO": 999,
    "REV_AT_EPOCH": 6990,
    "BSTAR": 0.0,
    "MEAN_MOTION_DOT": -6.875e-05,
    "MEAN_MOTION_DDOT": 0.0,
    "TLE_LINE1": "1 60600U 24150T   25315.23779361 -.00006875  00000+0 -22003-3 0  9995",
    "TLE_LINE2": "2 60600  53.1596 137.3810 0001681  85.7807 274.3386 15.30220803 69908",
    "COMMENT": "Grouped by shell and plane from TLE"
  },
  {
    "OBJECT_NAME": "STARLINK-31988",
    "OBJECT_ID": "24150U",
    "EPOCH": "2025-11-11T05:33:18.689184",
    "MEAN_MOTION": 15.30193015,
    "ECCENTRICITY": 0.0001136,
    "INCLINATION": 53.161,
    "RA_OF_ASC_NODE": 137.3399,
    "ARG_OF_PERICENTER": 97.7396,
    "MEAN_ANOMALY": 262.3734,
    "EPHEMERIS_TYPE": 0,
    "CLASSIFICATION_TYPE": "U",
    "NORAD_CAT_ID": 60601,
    "ELEMENT_SET_NO": 999,
    "REV_AT_EPOCH": 6982,
    "BSTAR": 8.8205e-05,
    "MEAN_MOTION_DOT": 2.254e-05,
    "MEAN_MOTION_DDOT": 0.0,
    "TLE_LINE1": "1 60601U 24150U   25315.23146631  .00002254  00000+0  88205-4 0  9996",
    "TLE_LINE2": "2 60601  53.1610 137.3399 0001136  97.7396 262.3734 15.30193015 69828",
    "COMMENT": "Grouped by shell and plane from TLE"
  },
  {
    "OBJECT_NAME": "STARLINK-31983",
    "OBJECT_ID": "24150V",
    "EPOCH": "2025-11-11T05:15:04.359744",
    "MEAN_MOTION": 15.3020296,
    "ECCENTRICITY": 9.41e-05,
    "INCLINATION": 53.1633,
    "RA_OF_ASC_NODE": 137.2617,
    "ARG_OF_PERICENTER": 89.2262,
    "MEAN_ANOMALY": 270.8847,
    "EPHEMERIS_TYPE": 0,
    "CLASSIFICATION_TYPE": "U",
    "NORAD_CAT_ID": 60602,
    "ELEMENT_SET_NO": 999,
    "REV_AT_EPOCH": 6982,
    "BSTAR": 2.7553e-06,
    "MEAN_MOTION_DOT": -2.77e-06,
    "MEAN_MOTION_DDOT": 0.0,
    "TLE_LINE1": "1 60602U 24150V   25315.21880046 -.00000277  00000+0  27553-5 0  9994",
    "TLE_LINE2": "2 60602  53.1633 137.2617 0000941  89.2262 270.8847 15.30202960 69826",
    "COMMENT": "Grouped by shell and plane from TLE"
  },
  {
    "OBJECT_NAME": "STARLINK-31874",
    "OBJECT_ID": "24150W",
    "EPOCH": "2025-11-11T05:24:11.606976",
    "MEAN_MOTION": 15.30191127,
    "ECCENTRICITY": 9.43e-05,
    "INCLINATION": 53.1604,
    "RA_OF_ASC_NODE": 137.3029,
    "ARG_OF_PERICENTER": 98.3512,
    "MEAN_ANOMALY": 261.7596,
    "EPHEMERIS_TYPE": 0,
    "CLASSIFICATION_TYPE": "U",
    "NORAD_CAT_ID": 60603,
    "ELEMENT_SET_NO": 999,
    "REV_AT_EPOCH": 6990,
    "BSTAR": 4.2015000000000003e-05,
    "MEAN_MOTION_DOT": 8.85e-06,
    "MEAN_MOTION_DDOT": 0.0,
    "TLE_LINE1": "1 60603U 24150W   25315.22513434  .00000885  00000+0  42015-4 0  9993",
    "TLE_LINE2": "2 60603  53.1604 137.3029 0000943  98.3512 261.7596 15.30191127 69905",
    "COMMENT": "Grouped by shell and plane from TLE"
  },
  {
    "OBJECT_NAME": "STARLINK-32372",
    "OBJECT_ID": "24210B",
    "EPOCH": "2025-11-10T21:12:41.549472",
    "MEAN_MOTION": 15.27608522,
    "ECCENTRICITY": 0.0001854,
    "INCLINATION": 43.0042,
    "RA_OF_ASC_NODE": 130.481,
    "ARG_OF_PERICENTER": 280.5698,
    "MEAN_ANOMALY": 79.4945,
    "EPHEMERIS_TYPE": 0,
    "CLASSIFICATION_TYPE": "U",
    "NORAD_CAT_ID": 61960,
    "ELEMENT_SET_NO": 999,
    "REV_AT_EPOCH": 5661,
    "BSTAR": 0.0014736,
    "MEAN_MOTION_DOT": 0.00040548,
    "MEAN_MOTION_DDOT": 0.0,
    "TLE_LINE1": "1 61960U 24210B   25314.88381423  .00040548  00000+0  14736-2 0  9996",
    "TLE_LINE2": "2 61960  43.0042 130.4810 0001854 280.5698  79.4945 15.27608522 56614",
    "COMMENT": "Grouped by shell and plane from TLE"
  },
  {
    "OBJECT_NAME": "STARLINK-32613",
    "OBJECT_ID": "24210M",
    "EPOCH": "2025-11-10T20:46:59.952288",
    "MEAN_MOTION": 15.27596381,
    "ECCENTRICITY": 0.0001706,
    "INCLINATION": 42.9984,
    "RA_OF_ASC_NODE": 131.2018,
    "ARG_OF_PERICENTER": 276.1931,
    "MEAN_ANOMALY": 83.8726,
    "EPHEMERIS_TYPE": 0,
    "CLASSIFICATION_TYPE": "U",
    "NORAD_CAT_ID": 61970,
    "ELEMENT_SET_NO": 999,
    "REV_AT_EPOCH": 5674,
    "BSTAR": 0.0013814,
    "MEAN_MOTION_DOT": 0.00037966,
    "MEAN_MOTION_DDOT": 0.0,
    "TLE_LINE1": "1 61970U 24210M   25314.86597167  .00037966  00000+0  13814-2 0  9995",
    "TLE_LINE2": "2 61970  42.9984 131.2018 0001706 276.1931  83.8726 15.27596381 56743",
    "COMMENT": "Grouped by shell and plane from TLE"
  },
  {
    "OBJECT_NAME": "STARLINK-32593",
    "OBJECT_ID": "24210R",
    "EPOCH": "2025-11-10T20:56:15.806688",
    "MEAN_MOTION": 15.27581393,
    "ECCENTRICITY": 0.0001703,
    "INCLINATION": 43.002,
    "RA_OF_ASC_NODE": 131.2535,
    "ARG_OF_PERICENTER": 269.908,
    "MEAN_ANOMALY": 90.1576,
    "EPHEMERIS_TYPE": 0,
    "CLASSIFICATION_TYPE": "U",
    "NORAD_CAT_ID": 61974,
    "ELEMENT_SET_NO": 999,
    "REV_AT_EPOCH": 5670,
    "BSTAR": 0.0014531,
    "MEAN_MOTION_DOT": 0.00039943,
    "MEAN_MOTION_DDOT": 0.0,
    "TLE_LINE1": "1 61974U 24210R   25314.87240517  .00039943  00000+0  14531-2 0  9998",
    "TLE_LINE2": "2 61974  43.0020 131.2535 0001703 269.9080  90.1576 15.27581393 56703",
    "COMMENT": "Grouped by shell and plane from TLE"
  },
  {
    "OBJECT_NAME": "STARLINK-32586",
    "OBJECT_ID": "24210S",
    "EPOCH": "2025-11-10T21:49:43.112928",
    "MEAN_MOTION": 15.27538381,
    "ECCENTRICITY": 0.0001896,
    "INCLINATION": 43.0005,
    "RA_OF_ASC_NODE": 130.6643,
    "ARG_OF_PERICENTER": 274.9584,
    "MEAN_ANOMALY": 85.1051,
    "EPHEMERIS_TYPE": 0,
    "CLASSIFICATION_TYPE": "U",
    "NORAD_CAT_ID": 61975,
    "ELEMENT_SET_NO": 999,
    "REV_AT_EPOCH": 5671,
    "BSTAR": 0.00039539999999999996,
    "MEAN_MOTION_DOT": 0.0001062,
    "MEAN_MOTION_DDOT": 0.0,
    "TLE_LINE1": "1 61975U 24210S   25314.90952677  .00010620  00000+0  39540-3 0  9999",
    "TLE_LINE2": "2 61975  43.0005 130.6643 0001896 274.9584  85.1051 15.27538381 56710",
    "COMMENT": "Grouped by shell and plane from TLE"
  },
  {
    "OBJECT_NAME": "STARLINK-32611",
    "OBJECT_ID": "24210T",
    "EPOCH": "2025-11-10T20:10:00.450336",
    "MEAN_MOTION": 15.27630284,
    "ECCENTRICITY": 0.0001619,
    "INCLINATION": 43.0012,
    "RA_OF_ASC_NODE": 131.0032,
    "ARG_OF_PERICENTER": 269.3956,
    "MEAN_ANOMALY": 90.671,
    "EPHEMERIS_TYPE": 0,
    "CLASSIFICATION_TYPE": "U",
    "NORAD_CAT_ID": 61976,
    "ELEMENT_SET_NO": 999,
    "REV_AT_EPOCH": 5670,
    "BSTAR": 0.0013146,
    "MEAN_MOTION_DOT": 0.00036146,
    "MEAN_MOTION_DDOT": 0.0,
    "TLE_LINE1": "1 61976U 24210T   25314.84028299  .00036146  00000+0  13146-2 0  9991",
    "TLE_LINE2": "2 61976  43.0012 131.0032 0001619 269.3956  90.6710 15.27630284 56707",
    "COMMENT": "Grouped by shell and plane from TLE"
  }
]